GLOBALSTAR M084         
1 38040U 11080A   25044.48643639 -.00000083  00000+0  11600-3 0  9995
2 38040  52.0010  65.0619 0000692 117.8000  41.1231 12.62262120607049
GLOBALSTAR M080         
1 38041U 11080B   25044.78010846 -.00000084  00000+0  10818-3 0  9998
2 38041  52.0063  65.7353 0000878 104.2622  67.4236 12.62276990607200
GLOBALSTAR M082         
1 38042U 11080C   25044.91928687 -.00000101  00000+0  14092-4 0  9994
2 38042  52.0095  20.7407 0000208 317.6631  68.9972 12.62272991607934
GLOBALSTAR M092         
1 38043U 11080D   25044.75876133 -.00000079  00000+0  13914-3 0  9990
2 38043  52.0079 111.6005 0000659 127.7808   9.0776 12.62272948606576
GLOBALSTAR M090         
1 38044U 11080E   25044.66110160 -.00000105  00000+0 -89236-5 0  9995
2 38044  51.9907  15.4954 0000272  45.6613 126.2935 12.62266629608011
GLOBALSTAR M086         
1 38045U 11080F   25044.97538606 -.00000097  00000+0  38183-4 0  9992
2 38045  51.9919  15.0795 0001211  54.9468 346.2926 12.62266576608003
GLOBALSTAR M097         
1 39072U 13005A   25044.35953006 -.00000067  00000+0  20581-3 0  9998
2 39072  52.0051 291.3809 0000890  58.7841 301.3113 12.62269924555176
GLOBALSTAR M093         
1 39073U 13005B   25044.96600230 -.00000066  00000+0  21253-3 0  9990
2 39073  51.9807 283.0305 0000894  59.3064 300.7891 12.62261588555209
